start=new Date('2022-07-22T00:00:00.000Z').valueOf();
sats=[{"OBJECT_NAME":"STARLINK-1172","MEAN_MOTION_DDOT":"0.0000000000000","OBJECT_TYPE":"PAYLOAD","LAUNCH_DATE":"2020-01-29","MEAN_MOTION":"15.06378313","MEAN_MOTION_DOT":"-0.00001422","CENTER_NAME":"EARTH","DECAY_DATE":null,"SEMIMAJOR_AXIS":"6925.415","RA_OF_ASC_NODE":"104.7435","REF_FRAME":"TEME","FILE":"3518988","TLE_LINE2":"2 45074  53.0541 104.7435 0001786  60.7925 299.3243 15.06378313136699","INCLINATION":"53.0541","RCS_SIZE":"LARGE","REV_AT_EPOCH":"13669","ARG_OF_PERICENTER":"60.7925","BSTAR":"-0.00007664000000","EPOCH":"2022-07-21T11:14:17.185344","SITE":"AFETR","PERIAPSIS":"546.043","MEAN_ANOMALY":"299.3243","PERIOD":"95.594","APOAPSIS":"548.517","COUNTRY_CODE":"US","OBJECT_ID":"2020-006AG","CLASSIFICATION_TYPE":"U","EPHEMERIS_TYPE":"0","ELEMENT_SET_NO":"999","NORAD_CAT_ID":"45074","ECCENTRICITY":"0.00017860","TIME_SYSTEM":"UTC","GP_ID":"208572235","MEAN_ELEMENT_THEORY":"SGP4","TLE_LINE1":"1 45074U 20006AG  22202.46825446 -.00001422  00000-0 -76640-4 0  9993"},{"MEAN_ELEMENT_THEORY":"SGP4","TLE_LINE1":"1 45075U 20006AH  22202.43508103 -.00001537  00000-0 -84380-4 0  9996","ELEMENT_SET_NO":"999","NORAD_CAT_ID":"45075","ECCENTRICITY":"0.00012250","TIME_SYSTEM":"UTC","GP_ID":"208571497","COUNTRY_CODE":"US","CLASSIFICATION_TYPE":"U","OBJECT_ID":"2020-006AH","EPHEMERIS_TYPE":"0","EPOCH":"2022-07-21T10:26:31.000992","BSTAR":"-0.00008438000000","SITE":"AFETR","PERIAPSIS":"546.436","MEAN_ANOMALY":"256.1128","PERIOD":"95.594","APOAPSIS":"548.132","REV_AT_EPOCH":"13669","ARG_OF_PERICENTER":"103.9997","FILE":"3518988","TLE_LINE2":"2 45075  53.0553 104.8881 0001225 103.9997 256.1128 15.06377058136694","INCLINATION":"53.0553","RCS_SIZE":"LARGE","SEMIMAJOR_AXIS":"6925.419","RA_OF_ASC_NODE":"104.8881","REF_FRAME":"TEME","OBJECT_NAME":"STARLINK-1174","MEAN_MOTION_DDOT":"0.0000000000000","OBJECT_TYPE":"PAYLOAD","LAUNCH_DATE":"2020-01-29","MEAN_MOTION":"15.06377058","MEAN_MOTION_DOT":"-0.00001537","CENTER_NAME":"EARTH","DECAY_DATE":null},{"BSTAR":"0.00013870000000","EPOCH":"2022-07-21T10:35:45.866112","SITE":"AFETR","PERIAPSIS":"546.269","MEAN_ANOMALY":"289.8777","PERIOD":"95.594","APOAPSIS":"548.305","COUNTRY_CODE":"US","CLASSIFICATION_TYPE":"U","OBJECT_ID":"2020-006AJ","EPHEMERIS_TYPE":"0","ECCENTRICITY":"0.00014700","ELEMENT_SET_NO":"999","NORAD_CAT_ID":"45076","TIME_SYSTEM":"UTC","GP_ID":"208571746","MEAN_ELEMENT_THEORY":"SGP4","TLE_LINE1":"1 45076U 20006AJ  22202.44150308  .00001784  00000-0  13870-3 0  9995","OBJECT_NAME":"STARLINK-1180","MEAN_MOTION_DDOT":"0.0000000000000","OBJECT_TYPE":"PAYLOAD","MEAN_MOTION":"15.06376007","LAUNCH_DATE":"2020-01-29","MEAN_MOTION_DOT":"0.00001784","CENTER_NAME":"EARTH","DECAY_DATE":null,"SEMIMAJOR_AXIS":"6925.422","REF_FRAME":"TEME","RA_OF_ASC_NODE":"104.8599","FILE":"3518988","TLE_LINE2":"2 45076  53.0554 104.8599 0001470  70.2371 289.8777 15.06376007136692","INCLINATION":"53.0554","RCS_SIZE":"LARGE","REV_AT_EPOCH":"13669","ARG_OF_PERICENTER":"70.2371"},{"OBJECT_TYPE":"PAYLOAD","MEAN_MOTION_DDOT":"0.0000000000000","OBJECT_NAME":"STARLINK-1177","DECAY_DATE":null,"CENTER_NAME":"EARTH","MEAN_MOTION_DOT":"-0.00006536","LAUNCH_DATE":"2020-01-29","MEAN_MOTION":"15.06376705","REF_FRAME":"TEME","RA_OF_ASC_NODE":"103.5962","SEMIMAJOR_AXIS":"6925.420","TLE_LINE2":"2 45078  53.0534 103.5962 0002024  77.5921 282.5294 15.06376705136722","FILE":"3519265","RCS_SIZE":"LARGE","INCLINATION":"53.0534","REV_AT_EPOCH":"13672","ARG_OF_PERICENTER":"77.5921","SITE":"AFETR","EPOCH":"2022-07-21T17:25:48.778464","BSTAR":"-0.00042050000000","APOAPSIS":"548.687","PERIOD":"95.594","MEAN_ANOMALY":"282.5294","PERIAPSIS":"545.883","EPHEMERIS_TYPE":"0","OBJECT_ID":"2020-006AL","CLASSIFICATION_TYPE":"U","COUNTRY_CODE":"US","GP_ID":"208601065","NORAD_CAT_ID":"45078","ELEMENT_SET_NO":"999","ECCENTRICITY":"0.00020240","TIME_SYSTEM":"UTC","MEAN_ELEMENT_THEORY":"SGP4","TLE_LINE1":"1 45078U 20006AL  22202.72625901 -.00006536  00000-0 -42050-3 0  9998"},{"ARG_OF_PERICENTER":"99.4552","REV_AT_EPOCH":"13668","RCS_SIZE":"LARGE","INCLINATION":"53.0569","TLE_LINE2":"2 45079  53.0569 104.8643 0001355  99.4552 260.6590 15.06406771136688","FILE":"3518988","SEMIMAJOR_AXIS":"6925.328","REF_FRAME":"TEME","RA_OF_ASC_NODE":"104.8643","CENTER_NAME":"EARTH","DECAY_DATE":null,"MEAN_MOTION":"15.06406771","LAUNCH_DATE":"2020-01-29","MEAN_MOTION_DOT":"-0.00000271","OBJECT_TYPE":"PAYLOAD","OBJECT_NAME":"STARLINK-1149","MEAN_MOTION_DDOT":"0.0000000000000","TLE_LINE1":"1 45079U 20006AM  22202.43779846 -.00000271  00000-0  69437-6 0  9995","MEAN_ELEMENT_THEORY":"SGP4","GP_ID":"208572736","TIME_SYSTEM":"UTC","ELEMENT_SET_NO":"999","NORAD_CAT_ID":"45079","ECCENTRICITY":"0.00013550","EPHEMERIS_TYPE":"0","COUNTRY_CODE":"US","CLASSIFICATION_TYPE":"U","OBJECT_ID":"2020-006AM","PERIOD":"95.592","APOAPSIS":"548.131","PERIAPSIS":"546.254","MEAN_ANOMALY":"260.6590","SITE":"AFETR","EPOCH":"2022-07-21T10:30:25.786944","BSTAR":"0.00000069437000"},{"TLE_LINE1":"1 45080U 20006AN  22202.44612755 -.00006597  00000-0 -42464-3 0  9999","MEAN_ELEMENT_THEORY":"SGP4","ELEMENT_SET_NO":"999","NORAD_CAT_ID":"45080","ECCENTRICITY":"0.00015540","TIME_SYSTEM":"UTC","GP_ID":"208570997","COUNTRY_CODE":"US","OBJECT_ID":"2020-006AN","CLASSIFICATION_TYPE":"U","EPHEMERIS_TYPE":"0","PERIAPSIS":"546.212","MEAN_ANOMALY":"293.8040","PERIOD":"95.594","APOAPSIS":"548.365","BSTAR":"-0.00042464000000","EPOCH":"2022-07-21T10:42:25.420320","SITE":"AFETR","ARG_OF_PERICENTER":"66.3112","REV_AT_EPOCH":"13669","INCLINATION":"53.0539","RCS_SIZE":"LARGE","FILE":"3518988","TLE_LINE2":"2 45080  53.0539 104.8443 0001554  66.3112 293.8040 15.06375583136696","SEMIMAJOR_AXIS":"6925.423","RA_OF_ASC_NODE":"104.8443","REF_FRAME":"TEME","MEAN_MOTION":"15.06375583","LAUNCH_DATE":"2020-01-29","MEAN_MOTION_DOT":"-0.00006597","CENTER_NAME":"EARTH","DECAY_DATE":null,"OBJECT_NAME":"STARLINK-1153","MEAN_MOTION_DDOT":"0.0000000000000","OBJECT_TYPE":"PAYLOAD"},{"PERIAPSIS":"546.051","MEAN_ANOMALY":"290.5475","PERIOD":"95.593","APOAPSIS":"548.464","BSTAR":"-0.00022867000000","EPOCH":"2022-07-21T10:09:12.672576","SITE":"AFETR","COUNTRY_CODE":"US","CLASSIFICATION_TYPE":"U","OBJECT_ID":"2020-006AP","EPHEMERIS_TYPE":"0","ELEMENT_SET_NO":"999","ECCENTRICITY":"0.00017420","NORAD_CAT_ID":"45081","TIME_SYSTEM":"UTC","GP_ID":"208571247","TLE_LINE1":"1 45081U 20006AP  22202.42306334 -.00003685  00000-0 -22867-3 0  9991","MEAN_ELEMENT_THEORY":"SGP4","LAUNCH_DATE":"2020-01-29","MEAN_MOTION":"15.06385648","MEAN_MOTION_DOT":"-0.00003685","CENTER_NAME":"EARTH","DECAY_DATE":null,"OBJECT_NAME":"STARLINK-1151","MEAN_MOTION_DDOT":"0.0000000000000","OBJECT_TYPE":"PAYLOAD","SEMIMAJOR_AXIS":"6925.393","RA_OF_ASC_NODE":"104.9381","REF_FRAME":"TEME","INCLINATION":"53.0530","RCS_SIZE":"LARGE","FILE":"3518988","TLE_LINE2":"2 45081  53.0530 104.9381 0001742  69.5701 290.5475 15.06385648136697","ARG_OF_PERICENTER":"69.5701","REV_AT_EPOCH":"13669"},{"SEMIMAJOR_AXIS":"6925.412","REF_FRAME":"TEME","RA_OF_ASC_NODE":"103.5081","LAUNCH_DATE":"2020-01-29","MEAN_MOTION":"15.06379427","MEAN_MOTION_DOT":"-0.00002343","CENTER_NAME":"EARTH","DECAY_DATE":null,"OBJECT_NAME":"STARLINK-1160","MEAN_MOTION_DDOT":"0.0000000000000","OBJECT_TYPE":"PAYLOAD","ARG_OF_PERICENTER":"56.4877","REV_AT_EPOCH":"13673","INCLINATION":"53.0556","RCS_SIZE":"LARGE","FILE":"3519265","TLE_LINE2":"2 45082  53.0556 103.5081 0001699  56.4877 303.6274 15.06379427136734","COUNTRY_CODE":"US","CLASSIFICATION_TYPE":"U","OBJECT_ID":"2020-006AQ","EPHEMERIS_TYPE":"0","PERIAPSIS":"546.100","MEAN_ANOMALY":"303.6274","PERIOD":"95.593","APOAPSIS":"548.453","EPOCH":"2022-07-21T17:51:00.782784","BSTAR":"-0.00013854000000","SITE":"AFETR","TLE_LINE1":"1 45082U 20006AQ  22202.74375906 -.00002343  00000-0 -13854-3 0  9994","MEAN_ELEMENT_THEORY":"SGP4","TIME_SYSTEM":"UTC","ELEMENT_SET_NO":"999","NORAD_CAT_ID":"45082","ECCENTRICITY":"0.00016990","GP_ID":"208601566"},{"EPHEMERIS_TYPE":"0","COUNTRY_CODE":"US","OBJECT_ID":"2020-006AR","CLASSIFICATION_TYPE":"U","PERIOD":"95.594","APOAPSIS":"548.258","PERIAPSIS":"546.361","MEAN_ANOMALY":"279.1734","SITE":"AFETR","BSTAR":"-0.00047052000000","EPOCH":"2022-07-21T20:13:00.552864","TLE_LINE1":"1 45083U 20006AR  22202.84236751 -.00007277  00000-0 -47052-3 0  9998","MEAN_ELEMENT_THEORY":"SGP4","GP_ID":"208601816","ECCENTRICITY":"0.00013700","ELEMENT_SET_NO":"999","NORAD_CAT_ID":"45083","TIME_SYSTEM":"UTC","SEMIMAJOR_AXIS":"6925.445","REF_FRAME":"TEME","RA_OF_ASC_NODE":"123.0749","CENTER_NAME":"EARTH","DECAY_DATE":null,"MEAN_MOTION":"15.06368694","LAUNCH_DATE":"2020-01-29","MEAN_MOTION_DOT":"-0.00007277","OBJECT_TYPE":"PAYLOAD","OBJECT_NAME":"STARLINK-1190","MEAN_MOTION_DDOT":"0.0000000000000","ARG_OF_PERICENTER":"80.9410","REV_AT_EPOCH":"13647","RCS_SIZE":"LARGE","INCLINATION":"53.0524","TLE_LINE2":"2 45083  53.0524 123.0749 0001370  80.9410 279.1734 15.06368694136472","FILE":"3519265"},{"OBJECT_TYPE":"PAYLOAD","MEAN_MOTION_DDOT":"0.0000000000000","OBJECT_NAME":"STARLINK-1173","DECAY_DATE":null,"CENTER_NAME":"EARTH","MEAN_MOTION_DOT":"-0.00002123","LAUNCH_DATE":"2020-01-29","MEAN_MOTION":"15.06381792","REF_FRAME":"TEME","RA_OF_ASC_NODE":"83.7566","SEMIMAJOR_AXIS":"6925.404","TLE_LINE2":"2 45084  53.0561  83.7566 0001354  82.8518 277.2625 15.06381792137018","FILE":"3519265","RCS_SIZE":"LARGE","INCLINATION":"53.0561","REV_AT_EPOCH":"13701","ARG_OF_PERICENTER":"82.8518","SITE":"AFETR","BSTAR":"-0.00012371000000","EPOCH":"2022-07-21T16:35:24.332640","APOAPSIS":"548.207","PERIOD":"95.593","MEAN_ANOMALY":"277.2625","PERIAPSIS":"546.332","EPHEMERIS_TYPE":"0","OBJECT_ID":"2020-006AS","CLASSIFICATION_TYPE":"U","COUNTRY_CODE":"US","GP_ID":"208602560","NORAD_CAT_ID":"45084","ELEMENT_SET_NO":"999","TIME_SYSTEM":"UTC","ECCENTRICITY":"0.00013540","MEAN_ELEMENT_THEORY":"SGP4","TLE_LINE1":"1 45084U 20006AS  22202.69125385 -.00002123  00000-0 -12371-3 0  9993"}];
